[{"OBJECT_NAME":"STARLINK-3966","OBJECT_ID":"2022-051V","EPOCH":"2026-03-09T08:07:20.180928","MEAN_MOTION":15.08835623,"ECCENTRICITY":0.00012359,"INCLINATION":53.2168,"RA_OF_ASC_NODE":130.8518,"ARG_OF_PERICENTER":101.291,"MEAN_ANOMALY":258.8221,"EPHEMERIS_TYPE":0,"CLASSIFICATION_TYPE":"U","NORAD_CAT_ID":52552,"ELEMENT_SET_NO":999,"REV_AT_EPOCH":21139,"BSTAR":-0.00012890158,"MEAN_MOTION_DOT":-2.338e-5,"MEAN_MOTION_DDOT":0},{"OBJECT_NAME":"CZ-4B DEB","OBJECT_ID":"2008-053J","EPOCH":"2026-03-09T11:59:22.469568","MEAN_MOTION":15.1637526,"ECCENTRICITY":0.00601661,"INCLINATION":97.7872,"RA_OF_ASC_NODE":170.5072,"ARG_OF_PERICENTER":304.792,"MEAN_ANOMALY":54.7659,"EPHEMERIS_TYPE":0,"CLASSIFICATION_TYPE":"U","NORAD_CAT_ID":35573,"ELEMENT_SET_NO":999,"REV_AT_EPOCH":91868,"BSTAR":0.0017688276,"MEAN_MOTION_DOT":0.00036031,"MEAN_MOTION_DDOT":0}]
